[{"OBJECT_NAME":"HORS 1","OBJECT_ID":"2023-091Y","EPOCH":"2026-03-09T22:53:40.941312","MEAN_MOTION":15.24891371,"ECCENTRICITY":0.00107483,"INCLINATION":97.5184,"RA_OF_ASC_NODE":132.0743,"ARG_OF_PERICENTER":84.6669,"MEAN_ANOMALY":275.5794,"EPHEMERIS_TYPE":0,"CLASSIFICATION_TYPE":"U","NORAD_CAT_ID":57188,"ELEMENT_SET_NO":999,"REV_AT_EPOCH":14918,"BSTAR":0.00046916276,"MEAN_MOTION_DOT":0.00011622,"MEAN_MOTION_DDOT":0},{"OBJECT_NAME":"OBJECT AF","OBJECT_ID":"2025-313AF","EPOCH":"2026-03-09T22:40:24.568320","MEAN_MOTION":15.21283036,"ECCENTRICITY":0.00138127,"INCLINATION":97.398,"RA_OF_ASC_NODE":145.1678,"ARG_OF_PERICENTER":3.4276,"MEAN_ANOMALY":356.7052,"EPHEMERIS_TYPE":0,"CLASSIFICATION_TYPE":"U","NORAD_CAT_ID":67277,"ELEMENT_SET_NO":999,"REV_AT_EPOCH":1085,"BSTAR":0.00037771518,"MEAN_MOTION_DOT":8.4e-5,"MEAN_MOTION_DDOT":0}]
